[
  {
    "name": "KUIPER-00230",
    "noradId": "68579",
    "line1": "1 68579U 26072G   26193.98100934  .00027518  00000+0  71792-3 0  9998",
    "line2": "2 68579  51.8760  51.8334 0002884 110.9454 249.1842 15.38614306 15355"
  },
  {
    "name": "KUIPER-00231",
    "noradId": "68580",
    "line1": "1 68580U 26072H   26194.58334491 -.00013736  00000+0 -11410-2 0  9993",
    "line2": "2 68580  51.8964  51.8574 0002103  45.9932 310.2436 14.97665210  5364"
  },
  {
    "name": "KUIPER-00234",
    "noradId": "68581",
    "line1": "1 68581U 26072J   26193.95361060  .00001126  00000+0  19038-3 0  9999",
    "line2": "2 68581  51.9000  76.6420 0000628 212.3697 147.7226 14.76587148 15002"
  },
  {
    "name": "KUIPER-00236",
    "noradId": "68582",
    "line1": "1 68582U 26072K   26193.87195789  .00020277  00000+0  54074-3 0  9991",
    "line2": "2 68582  51.8766  52.5976 0003498 123.6728 236.4593 15.38122144 15336"
  },
  {
    "name": "KUIPER-00244",
    "noradId": "68583",
    "line1": "1 68583U 26072L   26194.00352860 -.00003133  00000+0 -38214-3 0  9995",
    "line2": "2 68583  51.9014  66.5010 0001478 111.4163 248.6957 14.79934355 15150"
  },
  {
    "name": "KUIPER-00253",
    "noradId": "68584",
    "line1": "1 68584U 26072M   26194.00086061 -.00000229  00000+0 -10115-5 0  9998",
    "line2": "2 68584  51.9047  69.0169 0000757 100.1589 259.9459 14.79930967 15119"
  },
  {
    "name": "KUIPER-00254",
    "noradId": "68585",
    "line1": "1 68585U 26072N   26193.89686482 -.00000524  00000+0 -39720-4 0  9998",
    "line2": "2 68585  51.9045  71.9743 0001917 106.8360 253.2813 14.79934744 15069"
  },
  {
    "name": "KUIPER-00263",
    "noradId": "68586",
    "line1": "1 68586U 26072P   26194.58334491 -.00033898  00000+0 -39274-2 0  9998",
    "line2": "2 68586  51.9002  54.1123 0002561 109.8267 176.6696 14.85010095  5330"
  },
  {
    "name": "KUIPER-00269",
    "noradId": "68587",
    "line1": "1 68587U 26072Q   26194.58334491  .00030158  00000+0  39762-2 0  9995",
    "line2": "2 68587  51.9001  56.4350 0000167 130.0569 217.5552 14.79836719  5875"
  },
  {
    "name": "KUIPER-00272",
    "noradId": "68588",
    "line1": "1 68588U 26072R   26193.92255838  .00001809  00000+0  26625-3 0  9996",
    "line2": "2 68588  51.8987  79.3351 0000660 112.1693 247.9339 14.79929572 14960"
  },
  {
    "name": "KUIPER-00285",
    "noradId": "68589",
    "line1": "1 68589U 26072S   26194.58334491  .00022485  00000+0  29839-2 0  9995",
    "line2": "2 68589  51.9046  56.4857 0003016 129.6742  39.3346 14.79714869  5312"
  },
  {
    "name": "KUIPER-00286",
    "noradId": "68590",
    "line1": "1 68590U 26072T   26194.58334491 -.00031976  00000+0 -38173-2 0  9995",
    "line2": "2 68590  51.9008  53.5976 0002421  56.4811 271.7319 14.83752940  5640"
  },
  {
    "name": "KUIPER-00289",
    "noradId": "68591",
    "line1": "1 68591U 26072U   26194.00625087  .00000487  00000+0  92869-4 0  9992",
    "line2": "2 68591  51.8999  63.9800 0000794 132.3249 227.7781 14.79933932 15181"
  },
  {
    "name": "KUIPER-00290",
    "noradId": "68592",
    "line1": "1 68592U 26072V   26194.58334491  .00028505  00000+0  40733-2 0  9994",
    "line2": "2 68592  51.9025  59.8781 0001022 122.8343 330.7924 14.76447819  4632"
  },
  {
    "name": "KUIPER-00293",
    "noradId": "68593",
    "line1": "1 68593U 26072W   26193.99546148  .00001712  00000+0  25361-3 0  9995",
    "line2": "2 68593  51.8990  74.0141 0002994 125.0579 235.0665 14.79931534 15048"
  },
  {
    "name": "KUIPER-00294",
    "noradId": "68594",
    "line1": "1 68594U 26072X   26194.00859804  .00044236  00000+0  59075-2 0  9991",
    "line2": "2 68594  51.9005  61.4667 0000765 104.6810 255.4237 14.79111002 15226"
  },
  {
    "name": "KUIPER-00296",
    "noradId": "68595",
    "line1": "1 68595U 26072Y   26193.81360331  .00022853  00000+0  62539-3 0  9993",
    "line2": "2 68595  51.8707  52.9020 0009386 108.8923 251.3082 15.37210713 15320"
  },
  {
    "name": "KUIPER-00297",
    "noradId": "68596",
    "line1": "1 68596U 26072Z   26193.93423991  .00001127  00000+0  19141-3 0  9991",
    "line2": "2 68596  51.9005  73.9905 0001192 130.1413 229.9653 14.76357488 15044"
  },
  {
    "name": "KUIPER-00300",
    "noradId": "68597",
    "line1": "1 68597U 26072AA  26193.99397395  .00001136  00000+0  19231-3 0  9996",
    "line2": "2 68597  51.9037  70.7882 0001902 128.6216 231.4916 14.76474032 15091"
  },
  {
    "name": "KUIPER-00301",
    "noradId": "68598",
    "line1": "1 68598U 26072AB  26194.00712819  .00020843  00000+0  54423-3 0  9990",
    "line2": "2 68598  51.8650  51.9074 0009256 113.6008 246.5952 15.38722342 15354"
  },
  {
    "name": "KUIPER-00304",
    "noradId": "68599",
    "line1": "1 68599U 26072AC  26193.82591614  .00033444  00000+0  87064-3 0  9996",
    "line2": "2 68599  51.8669  52.9484 0010623 108.5252 251.6891 15.38530890 15326"
  },
  {
    "name": "KUIPER-00317",
    "noradId": "68600",
    "line1": "1 68600U 26072AD  26193.84009657 -.00002668  00000+0 -32103-3 0  9992",
    "line2": "2 68600  51.8982  62.2260 0002124  87.0415 273.0790 14.79930518 15198"
  },
  {
    "name": "KUIPER-00320",
    "noradId": "68601",
    "line1": "1 68601U 26072AE  26193.83469913  .00006949  00000+0  93882-3 0  9992",
    "line2": "2 68601  51.9030  67.2398 0000652 123.1868 236.9157 14.79970078 15122"
  },
  {
    "name": "KUIPER-00299",
    "noradId": "68864",
    "line1": "1 68864U 26095A   26194.19162330  .00000788  00000+0  14266-3 0  9995",
    "line2": "2 68864  51.8995 134.1851 0001538 262.0484  98.0302 14.76474002 11488"
  },
  {
    "name": "KUIPER-00353",
    "noradId": "68865",
    "line1": "1 68865U 26095B   26194.58334491 -.00032205  00000+0 -37861-2 0  9994",
    "line2": "2 68865  51.8999 119.0111 0003592  44.8981 263.0065 14.84383715  5453"
  },
  {
    "name": "KUIPER-00357",
    "noradId": "68866",
    "line1": "1 68866U 26095C   26194.20625404  .00001868  00000+0  27403-3 0  9992",
    "line2": "2 68866  51.9009 128.1036 0001063  84.8434 275.2650 14.79917213 11577"
  },
  {
    "name": "KUIPER-00364",
    "noradId": "68867",
    "line1": "1 68867U 26095D   26194.23729850  .00001795  00000+0  26467-3 0  9994",
    "line2": "2 68867  51.9042 130.4738 0001324 154.1457 205.9572 14.79899105 11545"
  },
  {
    "name": "KUIPER-00375",
    "noradId": "68868",
    "line1": "1 68868U 26095E   26194.58334491 -.00045794  00000+0 -59337-2 0  9996",
    "line2": "2 68868  51.9026 120.7756 0000648 102.4337  60.6100 14.80530362  5591"
  },
  {
    "name": "KUIPER-00433",
    "noradId": "68869",
    "line1": "1 68869U 26095F   26193.25042065  .00001554  00000+0  23276-3 0  9991",
    "line2": "2 68869  51.8997 142.3302 0000905  77.3272 282.7791 14.79943872 11298"
  },
  {
    "name": "KUIPER-00437",
    "noradId": "68870",
    "line1": "1 68870U 26095G   26194.00002315 -.00008424  00000+0 -20729-3 0  9996",
    "line2": "2 68870  51.8777 117.4919 0008251  45.0414 233.8229 15.38582054  5164"
  },
  {
    "name": "KUIPER-00448",
    "noradId": "68871",
    "line1": "1 68871U 26095H   26194.20375638  .00000728  00000+0  13434-3 0  9992",
    "line2": "2 68871  51.9038 126.3340 0001520 162.7267 197.3746 14.76432206 11594"
  },
  {
    "name": "KUIPER-00459",
    "noradId": "68872",
    "line1": "1 68872U 26095J   26194.58334491 -.01678793  00000+0 -89390-1 0  9994",
    "line2": "2 68872  51.8783 116.3391 0009368  46.9221  56.7108 15.18234318  3094"
  },
  {
    "name": "KUIPER-00468",
    "noradId": "68873",
    "line1": "1 68873U 26095K   26194.58334491 -.01719794  00000+0 -73099-1 0  9991",
    "line2": "2 68873  51.8857 115.1127 0004856  15.8218  57.0431 15.25955069  2373"
  },
  {
    "name": "KUIPER-00476",
    "noradId": "68874",
    "line1": "1 68874U 26095L   26194.17770828 -.00007790  00000+0 -22060-3 0  9994",
    "line2": "2 68874  51.8793 117.6933 0009014  31.2445 328.9074 15.34169501 11719"
  },
  {
    "name": "KUIPER-00478",
    "noradId": "68875",
    "line1": "1 68875U 26095M   26194.58334491 -.00009865  00000+0 -73926-3 0  9994",
    "line2": "2 68875  51.8886 117.0065 0005861  28.3024 181.9039 15.01249319  4551"
  },
  {
    "name": "KUIPER-00480",
    "noradId": "68876",
    "line1": "1 68876U 26095N   26194.58334491 -.01815043  00000+0 -99227-1 0  9999",
    "line2": "2 68876  51.8823 115.5499 0005987  21.4897 177.7581 15.17077711  2485"
  },
  {
    "name": "KUIPER-00482",
    "noradId": "68877",
    "line1": "1 68877U 26095P   26193.87568627  .00000958  00000+0  16703-3 0  9999",
    "line2": "2 68877  51.9014 126.7597 0000866 232.6772 127.4110 14.76417958 11565"
  },
  {
    "name": "KUIPER-00483",
    "noradId": "68878",
    "line1": "1 68878U 26095Q   26194.27085918  .00001131  00000+0  19141-3 0  9995",
    "line2": "2 68878  51.8991 137.5251 0001372 238.0373 122.0455 14.76518633 11448"
  },
  {
    "name": "KUIPER-00488",
    "noradId": "68879",
    "line1": "1 68879U 26095R   26194.58334491 -.00036272  00000+0 -39345-2 0  9996",
    "line2": "2 68879  51.8978 119.1346 0011550  67.5844  12.0981 14.87670305  4971"
  },
  {
    "name": "KUIPER-00489",
    "noradId": "68880",
    "line1": "1 68880U 26095S   26194.18901312  .00018053  00000+0  57643-3 0  9993",
    "line2": "2 68880  51.8814 117.7778 0012074  36.2623 323.9177 15.32475953 11719"
  },
  {
    "name": "KUIPER-00499",
    "noradId": "68881",
    "line1": "1 68881U 26095T   26194.58334491 -.00008455  00000+0 -60033-3 0  9990",
    "line2": "2 68881  51.8873 117.7338 0005323  64.6153  35.8323 15.03081362  2648"
  },
  {
    "name": "KUIPER-00500",
    "noradId": "68882",
    "line1": "1 68882U 26095U   26194.23192872  .00001769  00000+0  26103-3 0  9997",
    "line2": "2 68882  51.9011 135.4868 0001264  30.6912 329.4124 14.79927031 11471"
  },
  {
    "name": "KUIPER-00502",
    "noradId": "68883",
    "line1": "1 68883U 26095V   26194.58334491 -.01290093  00000+0 -49715-1 0  9996",
    "line2": "2 68883  51.8800 114.6742 0007809  43.6984 220.1908 15.28717630  5377"
  }
]